     2.10           G: GLONASS NAV DATA                     RINEX VERSION / TYPE
teqc  2015Jun23                         20210902 01:26:13UTCPGM / RUN BY / DATE
Linux 2.4.21-27.ELsmp|Opteron|gcc -static|Linux x86_64|=+   COMMENT
  2021     8     9   -9.313225746155D-10                    CORR TO SYSTEM TIME
                                                            END OF HEADER
12 21  8 10 15 45  0.0 2.525215968490D-04 3.637978807092D-12 5.580000000000D+04
   -6.508335937500D+03-1.656309127808D+00-9.313225746155D-10 0.000000000000D+00
    9.840053710938D+03-2.610774040222D+00 0.000000000000D+00-1.000000000000D+00
    2.264703808594D+04 6.606159210205D-01-2.793967723846D-09 0.000000000000D+00
 1 21  8 10 15 45  0.0 8.361786603928D-05 0.000000000000D+00 5.580000000000D+04
   -1.443744726562D+04 7.211303710938D-01-4.656612873077D-09 0.000000000000D+00
    1.852152099609D+04-1.167139053345D+00 2.793967723846D-09 1.000000000000D+00
   -9.978320800781D+03-3.208344459534D+00-0.000000000000D+00 0.000000000000D+00
 2 21  8 10 15 45  0.0 4.891986027360D-04 9.094947017729D-13 5.580000000000D+04
   -6.157572265625D+03-5.343141555786D-01-3.725290298462D-09 0.000000000000D+00
    2.238332177734D+04 1.344950675964D+00 9.313225746155D-10-4.000000000000D+00
    1.054223730469D+04-3.185063362122D+00-1.862645149231D-09 0.000000000000D+00
13 21  8 10 15 45  0.0-5.896296352148D-05-0.000000000000D+00 5.580000000000D+04
    6.044550781250D+03-9.154796600342D-01-1.862645149231D-09 0.000000000000D+00
    2.079727099609D+04-1.607643127441D+00-9.313225746155D-10-2.000000000000D+00
    1.347255126953D+04 2.890023231506D+00-1.862645149231D-09 0.000000000000D+00
14 21  8 10 15 45  0.0 6.748456507921D-05 0.000000000000D+00 5.580000000000D+04
    1.542561621094D+04 4.442844390869D-01-1.862645149231D-09 0.000000000000D+00
    1.984610595703D+04 4.302396774292D-01-1.862645149231D-09-7.000000000000D+00
   -4.386347167969D+03 3.491946220398D+00 0.000000000000D+00 0.000000000000D+00
23 21  8 10 15 45  0.0-1.131929457188D-05-0.000000000000D+00 5.580000000000D+04
   -1.634440136719D+04-2.418204307556D+00-3.725290298462D-09 0.000000000000D+00
    8.415773925781D+03 2.379274368286D-01 2.793967723846D-09 3.000000000000D+00
   -1.769929052734D+04 2.347306251526D+00 0.000000000000D+00 0.000000000000D+00
24 21  8 10 15 45  0.0 5.396269261837D-05 9.094947017729D-13 5.580000000000D+04
   -1.840764160156D+03-3.152972221375D+00-2.793967723846D-09 0.000000000000D+00
    1.083119580078D+04 1.010408401489D-01 9.313225746155D-10 2.000000000000D+00
   -2.301131054688D+04 2.976846694946D-01 9.313225746155D-10 0.000000000000D+00
 3 21  8 10 15 45  0.0 4.103593528271D-05 9.094947017729D-13 5.679000000000D+04
    5.528201660156D+03-1.328762054443D+00-0.000000000000D+00 0.000000000000D+00
    1.192532861328D+04 2.676531791687D+00-1.862645149231D-09 5.000000000000D+00
    2.189170703125D+04-1.129306793213D+00-2.793967723846D-09 0.000000000000D+00
23 21  8 10 16 15  0.0-1.132022589445D-05-0.000000000000D+00 5.760000000000D+04
   -2.008183935547D+04-1.702424049377D+00-2.793967723846D-09 0.000000000000D+00
    9.102636718750D+03 4.899616241455D-01 3.725290298462D-09 3.000000000000D+00
   -1.284527978516D+04 3.011095046997D+00-0.000000000000D+00 0.000000000000D+00
 1 21  8 10 16 15  0.0 8.361879736185D-05 0.000000000000D+00 5.760000000000D+04
   -1.305502148438D+04 7.728643417358D-01-3.725290298462D-09 0.000000000000D+00
    1.570565234375D+04-1.948068618774D+00 2.793967723846D-09 1.000000000000D+00
   -1.529333007812D+04-2.658899307251D+00 0.000000000000D+00 0.000000000000D+00
 2 21  8 10 16 15  0.0 4.892004653811D-04 9.094947017729D-13 5.760000000000D+04
   -6.659908691406D+03-5.237483978271D-02-3.725290298462D-09 0.000000000000D+00
    2.418798583984D+04 6.286478042603D-01 1.862645149231D-09-4.000000000000D+00
    4.474995605469D+03-3.512525558472D+00-1.862645149231D-09 0.000000000000D+00
 3 21  8 10 16 15  0.0 4.103779792786D-05 0.000000000000D+00 5.760000000000D+04
    3.613754394531D+03-7.965173721313D-01-1.862645149231D-09 0.000000000000D+00
    1.660754736328D+04 2.476194381714D+00-0.000000000000D+00 5.000000000000D+00
    1.904123095703D+04-2.017587661743D+00-2.793967723846D-09 0.000000000000D+00
13 21  8 10 16 15  0.0-5.896389484406D-05-0.000000000000D+00 5.760000000000D+04
    3.822318847656D+03-1.555371284485D+00-9.313225746155D-10 0.000000000000D+00
    1.757083984375D+04-1.931071281433D+00-0.000000000000D+00-2.000000000000D+00
    1.808636669922D+04 2.203122138977D+00-2.793967723846D-09 0.000000000000D+00
14 21  8 10 16 15  0.0 6.748549640179D-05 0.000000000000D+00 5.760000000000D+04
    1.579456835938D+04-6.822013854980D-02-1.862645149231D-09 0.000000000000D+00
    1.994714843750D+04-2.959613800049D-01-9.313225746155D-10-7.000000000000D+00
    1.987444824219D+03 3.544100761414D+00-0.000000000000D+00 0.000000000000D+00
24 21  8 10 16 15  0.0 5.396548658609D-05 1.818989403546D-12 5.760000000000D+04
   -7.344339355469D+03-2.912280082703D+00-2.793967723846D-09 0.000000000000D+00
    1.141272509766D+04 5.312995910645D-01 2.793967723846D-09 2.000000000000D+00
   -2.159222460938D+04 1.268770217896D+00 9.313225746155D-10 0.000000000000D+00
23 21  8 10 16 45  0.0-1.132208853960D-05-0.000000000000D+00 5.940000000000D+04
   -2.238954638672D+04-8.480224609375D-01-1.862645149231D-09 0.000000000000D+00
    1.003651220703D+04 5.049057006836D-01 4.656612873077D-09 3.000000000000D+00
   -6.999139160156D+03 3.442500114441D+00-9.313225746155D-10 0.000000000000D+00
 1 21  8 10 16 45  0.0 8.361972868443D-05 0.000000000000D+00 5.940000000000D+04
   -1.179703564453D+04 5.895042419434D-01-2.793967723846D-09 0.000000000000D+00
    1.159003906250D+04-2.593683242798D+00 3.725290298462D-09 1.000000000000D+00
   -1.942674951172D+04-1.903975486755D+00 0.000000000000D+00 0.000000000000D+00
 2 21  8 10 16 45  0.0 4.892023280263D-04 9.094947017729D-13 5.940000000000D+04
   -6.469327148438D+03 2.255296707153D-01-3.725290298462D-09 0.000000000000D+00
    2.456195019531D+04-2.276639938354D-01 2.793967723846D-09-4.000000000000D+00
   -1.939160156250D+03-3.567878723145D+00-9.313225746155D-10 0.000000000000D+00
 3 21  8 10 16 45  0.0 4.103872925043D-05 0.000000000000D+00 5.940000000000D+04
    2.634914550781D+03-3.069581985474D-01-2.793967723846D-09 0.000000000000D+00
    2.066727978516D+04 1.990130424500D+00 0.000000000000D+00 5.000000000000D+00
    1.472131689453D+04-2.751378059387D+00-1.862645149231D-09 0.000000000000D+00
13 21  8 10 16 45  0.0-5.896482616663D-05-0.000000000000D+00 5.940000000000D+04
    4.727968750000D+02-2.149392127991D+00-9.313225746155D-10 0.000000000000D+00
    1.401429882812D+04-1.974578857422D+00 0.000000000000D+00-2.000000000000D+00
    2.130121777344D+04 1.345711708069D+00-2.793967723846D-09 0.000000000000D+00
14 21  8 10 16 45  0.0 6.748735904694D-05 0.000000000000D+00 5.940000000000D+04
    1.508093164062D+04-7.448282241821D-01-1.862645149231D-09 0.000000000000D+00
    1.888650683594D+04-8.468112945557D-01-9.313225746155D-10-7.000000000000D+00
    8.207812011719D+03 3.322627067566D+00-9.313225746155D-10 0.000000000000D+00
24 21  8 10 16 45  0.0 5.396734923124D-05 1.818989403546D-12 5.940000000000D+04
   -1.216049804688D+04-2.398846626282D+00-2.793967723846D-09 0.000000000000D+00
    1.266445507812D+04 8.299732208252D-01 3.725290298462D-09 2.000000000000D+00
   -1.850299121094D+04 2.141360282898D+00 0.000000000000D+00 0.000000000000D+00
23 21  8 10 17 15  0.0-1.132301986217D-05-0.000000000000D+00 6.120000000000D+04
   -2.312181250000D+04 2.785491943359D-02-9.313225746155D-10 0.000000000000D+00
    1.076383642578D+04 2.606716156006D-01 3.725290298462D-09 3.000000000000D+00
   -6.122211914062D+02 3.608025550842D+00-9.313225746155D-10 0.000000000000D+00
 1 21  8 10 17 15  0.0 8.362066000700D-05 0.000000000000D+00 6.120000000000D+04
   -1.103898583984D+04 2.302284240723D-01-9.313225746155D-10 0.000000000000D+00
    6.506284667969D+03-3.010618209839D+00 3.725290298462D-09 1.000000000000D+00
   -2.205907861328D+04-1.001830101013D+00 9.313225746155D-10 0.000000000000D+00
 2 21  8 10 17 15  0.0 4.892032593489D-04 0.000000000000D+00 6.120000000000D+04
   -5.994908691406D+03 2.601203918457D-01-2.793967723846D-09 0.000000000000D+00
    2.335116015625D+04-1.112483024597D+00 3.725290298462D-09-4.000000000000D+00
   -8.202667968750D+03-3.346138000488D+00-9.313225746155D-10 0.000000000000D+00
 3 21  8 10 17 15  0.0 4.103966057301D-05 0.000000000000D+00 6.120000000000D+04
    2.423762695312D+03 4.195499420166D-02-2.793967723846D-09 0.000000000000D+00
    2.363164257812D+04 1.271359443665D+00 1.862645149231D-09 5.000000000000D+00
    9.263599121094D+03-3.273495674133D+00-1.862645149231D-09 0.000000000000D+00
14 21  8 10 17 15  0.0 6.748829036951D-05 0.000000000000D+00 6.120000000000D+04
    1.307176171875D+04-1.489953994751D+00-1.862645149231D-09 0.000000000000D+00
    1.704304248047D+04-1.158390998840D+00-0.000000000000D+00-7.000000000000D+00
    1.379472705078D+04 2.844859123230D+00-1.862645149231D-09 0.000000000000D+00
24 21  8 10 17 15  0.0 5.397014319897D-05 1.818989403546D-12 6.120000000000D+04
   -1.586192480469D+04-1.689264297485D+00-1.862645149231D-09 0.000000000000D+00
    1.427294238281D+04 9.170894622803D-01 4.656612873077D-09 2.000000000000D+00
   -1.398311230469D+04 2.848076820374D+00-0.000000000000D+00 0.000000000000D+00
17 21  8 10 17 15  0.0 4.486516118050D-04 2.728484105319D-12 6.177000000000D+04
    9.426000976562D+02-2.838789939880D+00-1.862645149231D-09 0.000000000000D+00
    1.106800146484D+04 1.360997200012D+00 2.793967723846D-09 4.000000000000D+00
   -2.296409082031D+04 5.351676940918D-01 9.313225746155D-10 0.000000000000D+00
 4 21  8 10 17 15  0.0 9.961146861315D-05 1.818989403546D-12 6.282000000000D+04
    9.098450195312D+03-1.813135147095D-01-9.313225746155D-10 0.000000000000D+00
    1.065732373047D+04 2.911483764648D+00-9.313225746155D-10 6.000000000000D+00
    2.133843505859D+04-1.378977775574D+00-2.793967723846D-09 0.000000000000D+00
